ONEWEB-0268             
1 48986U 21060V   22133.58334491  .00008578  00000+0  22387-1 0  9992
2 48986  87.9136 166.4626 0002370  91.6825 357.5593 13.16587720  1306
ONEWEB-0269             
1 48987U 21060W   22133.58334491  .00010144  00000+0  26473-1 0  9995
2 48987  87.9128 166.4976 0002264  93.1119  83.3230 13.16594154  1302
ONEWEB-0270             
1 48988U 21060X   22133.58334491  .00008775  00000+0  22899-1 0  9991
2 48988  87.9138 166.4685 0001806  91.7444   8.3750 13.16590721  1307
ONEWEB-0271             
1 48989U 21060Y   22133.58334491  .00009788  00000+0  25542-1 0  9995
2 48989  87.9111 166.4740 0002027  75.0743  79.5663 13.16593972  1308
ONEWEB-0272             
1 48990U 21060Z   22133.58334491  .00008075  00000+0  21071-1 0  9998
2 48990  87.9129 166.4727 0002169  80.0759 325.4571 13.16593904  1300
ONEWEB-0273             
1 48991U 21060AA  22133.58334491  .00008782  00000+0  22917-1 0  9994
2 48991  87.9146 166.4673 0001885  85.4436 221.9593 13.16594980  1304
ONEWEB-0274             
1 48992U 21060AB  22133.58334491  .00010273  00000+0  26810-1 0  9999
2 48992  87.9109 166.4992 0002002  79.0689 108.3239 13.16590944  1300
ONEWEB-0275             
1 48993U 21060AC  22133.58334491  .00010044  00000+0  26209-1 0  9998
2 48993  87.9131 166.4748 0002036  86.2280 155.7250 13.16598810  1308
ONEWEB-0276             
1 48994U 21060AD  22133.58334491  .00008533  00000+0  22268-1 0  9990
2 48994  87.9117 166.5253 0001807  78.7683 359.4794 13.16590992  1302
ONEWEB-0277             
1 48995U 21060AE  22133.58334491  .00008087  00000+0  21102-1 0  9991
2 48995  87.9123 166.5266 0002027  70.9525 301.8577 13.16594011  1304
ONEWEB-0278             
1 48996U 21060AF  22133.58334491  .00008196  00000+0  21386-1 0  9997
2 48996  87.9170 166.4227 0001952  86.8845 340.5001 13.16594362  1301
ONEWEB-0279             
1 48997U 21060AG  22133.58334491  .00007974  00000+0  20808-1 0  9999
2 48997  87.9138 166.4648 0001965  96.4515 287.2538 13.16594291  1301
ONEWEB-0280             
1 48998U 21060AH  22133.58334491  .00008606  00000+0  22458-1 0  9996
2 48998  87.9139 166.4866 0002176  63.3748 254.8671 13.16594968  1300
ONEWEB-0281             
1 48999U 21060AJ  22133.58334491  .00009208  00000+0  24027-1 0  9990
2 48999  87.9141 166.4512 0002439  92.0009 193.5848 13.16595469  1305
ONEWEB-0282             
1 49000U 21060AK  22133.58334491  .00009656  00000+0  25201-1 0  9996
2 49000  87.9120 166.5064 0001785  80.2940  63.4264 13.16590290  1309
ONEWEB-0283             
1 49001U 21060AL  22133.58334491  .00010329  00000+0  26955-1 0  9993
2 49001  87.9120 166.5043 0002100  80.0503 118.1676 13.16595486  1309
ONEWEB-0284             
1 49002U 21060AM  22133.58334491  .00010233  00000+0  26702-1 0  9998
2 49002  87.9141 166.5106 0001768  83.0857 147.9011 13.16597171  1303
ONEWEB-0285             
1 49075U 21075A   22133.91667824  .00010207  00000+0  28312-1 0  9990
2 49075  87.8873 287.8840 0001677  91.1632 345.5698 13.12430792 40059
ONEWEB-0286             
1 49076U 21075B   22133.91667824  .00011735  00000+0  32543-1 0  9999
2 49076  87.8901 287.8360 0001880  99.5006 129.9524 13.12441454 39408
ONEWEB-0287             
1 49077U 21075C   22133.58334491 -.00043702  00000+0 -11309+0 0  9990
2 49077  87.9034 303.1935 0001444 103.9688 116.6919 13.17672598  1308
ONEWEB-0288             
1 49078U 21075D   22133.91667824  .00010422  00000+0  28901-1 0  9996
2 49078  87.8814 287.9230 0001792  94.6819 200.2651 13.12447351 40048
ONEWEB-0289             
1 49079U 21075E   22133.58334491 -.00044401  00000+0 -11491+0 0  9991
2 49079  87.9029 303.1624 0001944  97.7574  34.7497 13.17671763  1302
ONEWEB-0290             
1 49080U 21075F   22133.58334491 -.00044121  00000+0 -11419+0 0  9992
2 49080  87.9025 303.1957 0001375 100.5587  90.7133 13.17667474  1307
ONEWEB-0291             
1 49081U 21075G   22133.58334491 -.00043378  00000+0 -11224+0 0  9990
2 49081  87.9015 303.2001 0001519 104.5751 138.0195 13.17678594  1304
ONEWEB-0293             
1 49082U 21075H   22133.58334491 -.00044396  00000+0 -11490+0 0  9997
2 49082  87.9030 303.1603 0001383 102.9985  58.8806 13.17670395  1308
ONEWEB-0294             
1 49083U 21075J   22133.91667824  .00010781  00000+0  29895-1 0  9993
2 49083  87.9119 287.7998 0001210  99.1898 173.8696 13.12446817 39435
ONEWEB-0295             
1 49084U 21075K   22133.58334491 -.00044428  00000+0 -11498+0 0  9993
2 49084  87.9018 303.1330 0001587 121.3078  33.2453 13.17670975  1306
ONEWEB-0296             
1 49085U 21075L   22133.91667824  .00009387  00000+0  26026-1 0  9998
2 49085  87.9012 287.7749 0001914 131.7524 217.7683 13.12457949 39435
ONEWEB-0297             
1 49086U 21075M   22133.91667824  .00012076  00000+0  33488-1 0  9998
2 49086  87.8841 287.8981 0002351  90.0646 117.6505 13.12445436 40039
ONEWEB-0298             
1 49087U 21075N   22133.58334491 -.00044451  00000+0 -11504+0 0  9990
2 49087  87.9036 303.1367 0002181 104.3851  42.7867 13.17671517  1307
ONEWEB-0299             
1 49088U 21075P   22133.58334491 -.00044462  00000+0 -11507+0 0  9996
2 49088  87.9027 303.0909 0001941 103.1518  36.7097 13.17670605  1304
ONEWEB-0300             
1 49089U 21075Q   22133.91667824  .00011388  00000+0  31582-1 0  9999
2 49089  87.8816 287.8860 0001828  95.9633 155.3763 13.12442725 40064
ONEWEB-0301             
1 49090U 21075R   22133.91667824  .00009808  00000+0  27200-1 0  9997
2 49090  87.9100 287.7821 0001946  84.7066 232.2016 13.12442870 39421
ONEWEB-0302             
1 49091U 21075S   22133.91667824  .00009414  00000+0  26105-1 0  9994
2 49091  87.8848 287.8275 0001671 107.6690 263.7485 13.12443252 39410
ONEWEB-0304             
1 49092U 21075T   22133.58334491 -.00043826  00000+0 -11341+0 0  9990
2 49092  87.9028 303.1584 0001783  97.3297 116.0267 13.17674365  1300
ONEWEB-0305             
1 49093U 21075U   22133.58334491 -.00043273  00000+0 -11197+0 0  9996
2 49093  87.9033 303.2006 0001969 110.0637 139.9748 13.17675953  1306
ONEWEB-0308             
1 49094U 21075V   22133.91667824  .00009489  00000+0  26314-1 0  9991
2 49094  87.9114 287.8199 0001707  98.7258 294.5103 13.12442878 39428
ONEWEB-0309             
1 49095U 21075W   22133.58334491 -.00043582  00000+0 -11277+0 0  9990
2 49095  87.9039 303.1977 0001109  95.1570 132.9318 13.17677423  1305
ONEWEB-0310             
1 49096U 21075X   22133.91667824  .00009683  00000+0  26851-1 0  9995
2 49096  87.8955 287.9147 0001272 106.6309 231.9283 13.12447545 40050
ONEWEB-0311             
1 49097U 21075Y   22133.58334491 -.00043921  00000+0 -11366+0 0  9998
2 49097  87.9036 303.2007 0002124 106.6792  99.2969 13.17672017  1302
ONEWEB-0312             
1 49098U 21075Z   22133.58334491 -.00044367  00000+0 -11482+0 0  9993
2 49098  87.9044 303.1485 0001546 110.4356  58.7831 13.17672670  1300
ONEWEB-0313             
1 49099U 21075AA  22133.58334491 -.00043488  00000+0 -11253+0 0  9993
2 49099  87.9035 303.2021 0001541 112.5501 122.8090 13.17675117  1307
ONEWEB-0314             
1 49100U 21075AB  22133.58334491 -.00043188  00000+0 -11175+0 0  9996
2 49100  87.9042 303.1955 0001584 110.5798 146.8345 13.17674804  1307
ONEWEB-0315             
1 49101U 21075AC  22133.91667824  .00011180  00000+0  31008-1 0  9997
2 49101  87.8801 287.9184 0001852 101.3999  19.0455 13.12436745 40033
ONEWEB-0316             
1 49102U 21075AD  22133.91667824 -.01109141  00000+0 -36680+0 0  9995
2 49102  87.6587 274.2229 0020329  64.5192  64.7205 14.41044017 40790
ONEWEB-0317             
1 49103U 21075AE  22133.91667824  .00011533  00000+0  31980-1 0  9990
2 49103  87.8886 287.8803 0001520  96.8642  45.0405 13.12448139 40045
ONEWEB-0318             
1 49104U 21075AF  22133.91667824 -.01132753  00000+0 -45382+0 0  9991
2 49104  87.6473 274.2046 0022001  63.9501 252.1394 14.31422195 40775
ONEWEB-0319             
1 49105U 21075AG  22133.58334491 -.00044045  00000+0 -11398+0 0  9991
2 49105  87.9034 303.1618 0002499 110.9939  87.6670 13.17673258  1301
ONEWEB-0323             
1 49106U 21075AH  22133.91667824  .00011947  00000+0  33130-1 0  9991
2 49106  87.9108 287.8197 0002048 110.2252  75.5419 13.12443949 39412
ONEWEB-0329             
1 49107U 21075AJ  22133.58334491 -.00044228  00000+0 -11446+0 0  9990
2 49107  87.9030 303.1627 0001718 107.2227  76.6918 13.17672154  1308
ONEWEB-0330             
1 49108U 21075AK  22133.58334491 -.00044288  00000+0 -11462+0 0  9995
2 49108  87.9032 303.1786 0001680 103.2952  73.3571 13.17669548  1308
ONEWEB-0292             
1 49186U 21083A   22133.58334491 -.00009919  00000+0 -27224-1 0  9997
2 49186  87.9141 257.2781 0001987 100.9740 327.5026 13.13471225  1306
ONEWEB-0303             
1 49187U 21083B   22133.91667824 -.00012381  00000+0 -31476-1 0  9995
2 49187  87.9091 272.5782 0002015 110.3258 194.5204 13.18694903 34192
ONEWEB-0306             
1 49188U 21083C   22133.91667824 -.00011758  00000+0 -29892-1 0  9992
2 49188  87.9098 272.5648 0002431 106.5692 227.6598 13.18693336 34230
ONEWEB-0307             
1 49189U 21083D   22133.58334491 -.00010210  00000+0 -28024-1 0  9995
2 49189  87.9132 257.2762 0001795 106.0265 343.5413 13.13471052  1300
ONEWEB-0320             
1 49190U 21083E   22133.91667824 -.00012157  00000+0 -30906-1 0  9997
2 49190  87.9093 272.5849 0001547  99.4181 212.8551 13.18693911 34190
ONEWEB-0321             
1 49191U 21083F   22133.91667824 -.00058479  00000+0 -61174-2 0  9997
2 49191  87.2094 242.7696 0003745 142.8766  76.9306 14.90072759 37291
ONEWEB-0322             
1 49192U 21083G   22133.58334491 -.00010741  00000+0 -29480-1 0  9995
2 49192  87.9142 257.3160 0001269  96.7184  14.0533 13.13475320  1304
ONEWEB-0324             
1 49193U 21083H   22133.91667824 -.00011730  00000+0 -29821-1 0  9990
2 49193  87.9088 272.5829 0002197 113.1955 250.4482 13.18695067 34218
